[{"OBJECT_NAME":"HULIANWANG DIGUI-129","OBJECT_ID":"2025-311B","EPOCH":"2026-03-09T13:58:48.626400","MEAN_MOTION":13.29374784,"ECCENTRICITY":6.03e-6,"INCLINATION":50.0063,"RA_OF_ASC_NODE":112.8176,"ARG_OF_PERICENTER":336.9061,"MEAN_ANOMALY":23.1809,"EPHEMERIS_TYPE":0,"CLASSIFICATION_TYPE":"U","NORAD_CAT_ID":67237,"ELEMENT_SET_NO":999,"REV_AT_EPOCH":1009,"BSTAR":8.2704036e-5,"MEAN_MOTION_DOT":-8.6e-7,"MEAN_MOTION_DDOT":0},{"OBJECT_NAME":"SL-8 R\/B","OBJECT_ID":"1971-038B","EPOCH":"2026-03-09T22:06:37.975968","MEAN_MOTION":13.20776948,"ECCENTRICITY":0.00562377,"INCLINATION":74.0035,"RA_OF_ASC_NODE":17.1879,"ARG_OF_PERICENTER":278.0735,"MEAN_ANOMALY":138.3589,"EPHEMERIS_TYPE":0,"CLASSIFICATION_TYPE":"U","NORAD_CAT_ID":5181,"ELEMENT_SET_NO":999,"REV_AT_EPOCH":64453,"BSTAR":0.0002433649,"MEAN_MOTION_DOT":8.0e-7,"MEAN_MOTION_DDOT":0}]
